{
  "type": "FeatureCollection",
  "features": [
    {
      "type": "Feature",
      "properties": {
        "norad_id": 62876,
        "name": "QZS-6 (QZSS/PRN 200)",
        "group": "gnss",
        "lat": -0.015609190405110654,
        "lon": -125.09538571297627,
        "alt_km": 35780.030917151314,
        "timestamp": "2025-12-15T04:01:20.697272+00:00",
        "meta_object_name": "QZS-6 (QZSS/PRN 200)",
        "meta_object_id": "2025-023A",
        "meta_epoch": "2025-12-14T06:59:49.365312",
        "meta_mean_motion": 1.00274237,
        "meta_eccentricity": 0.0001621,
        "meta_inclination": 0.0356,
        "meta_ra_of_asc_node": 60.2807,
        "meta_arg_of_pericenter": 212.2981,
        "meta_mean_anomaly": 6.0961,
        "meta_ephemeris_type": 0,
        "meta_classification_type": "U",
        "meta_norad_cat_id": 62876,
        "meta_element_set_no": 999,
        "meta_rev_at_epoch": 310,
        "meta_bstar": 0,
        "meta_mean_motion_dot": -2.16e-06,
        "meta_mean_motion_ddot": 0,
        "tle_line1": "1 62876U 25023A   25348.29154358 -.00000216  00000+0  00000+0 0  9998",
        "tle_line2": "2 62876   0.0356  60.2807 0001621 212.2981   6.0961  1.00274237  3105"
      },
      "geometry": {
        "type": "Point",
        "coordinates": [
          -125.09538571297627,
          -0.015609190405110654
        ]
      }
    },
    {
      "type": "Feature",
      "properties": {
        "norad_id": 63130,
        "name": "COSMOS 2584 (704K)",
        "group": "gnss",
        "lat": -16.402006172972662,
        "lon": 71.17786602180463,
        "alt_km": 19143.427346714532,
        "timestamp": "2025-12-15T04:01:20.697284+00:00",
        "meta_object_name": "COSMOS 2584 (704K)",
        "meta_object_id": "2025-042A",
        "meta_epoch": "2025-12-14T06:03:59.697792",
        "meta_mean_motion": 2.13103042,
        "meta_eccentricity": 0.00076766,
        "meta_inclination": 64.9768,
        "meta_ra_of_asc_node": 79.0943,
        "meta_arg_of_pericenter": 217.6915,
        "meta_mean_anomaly": 142.268,
        "meta_ephemeris_type": 0,
        "meta_classification_type": "U",
        "meta_norad_cat_id": 63130,
        "meta_element_set_no": 999,
        "meta_rev_at_epoch": 610,
        "meta_bstar": 0,
        "meta_mean_motion_dot": -5.4e-07,
        "meta_mean_motion_ddot": 0,
        "tle_line1": "1 63130U 25042A   25348.25277428 -.00000054  00000+0  00000+0 0  9993",
        "tle_line2": "2 63130  64.9768  79.0943 0007676 217.6915 142.2680  2.13103042  6100"
      },
      "geometry": {
        "type": "Point",
        "coordinates": [
          71.17786602180463,
          -16.402006172972662
        ]
      }
    },
    {
      "type": "Feature",
      "properties": {
        "norad_id": 64202,
        "name": "GPS BIII-8  (PRN 21)",
        "group": "gnss",
        "lat": 34.08815020252397,
        "lon": 66.7147063693222,
        "alt_km": 20179.804066638026,
        "timestamp": "2025-12-15T04:01:20.697295+00:00",
        "meta_object_name": "GPS BIII-8  (PRN 21)",
        "meta_object_id": "2025-116A",
        "meta_epoch": "2025-12-14T02:46:13.653120",
        "meta_mean_motion": 2.00558299,
        "meta_eccentricity": 0.00056153,
        "meta_inclination": 55.1067,
        "meta_ra_of_asc_node": 38.5851,
        "meta_arg_of_pericenter": 308.147,
        "meta_mean_anomaly": 55.2369,
        "meta_ephemeris_type": 0,
        "meta_classification_type": "U",
        "meta_norad_cat_id": 64202,
        "meta_element_set_no": 999,
        "meta_rev_at_epoch": 416,
        "meta_bstar": 0,
        "meta_mean_motion_dot": -9.6e-07,
        "meta_mean_motion_ddot": 0,
        "tle_line1": "1 64202U 25116A   25348.11543580 -.00000096  00000+0  00000+0 0  9992",
        "tle_line2": "2 64202  55.1067  38.5851 0005615 308.1470  55.2369  2.00558299  4161"
      },
      "geometry": {
        "type": "Point",
        "coordinates": [
          66.7147063693222,
          34.08815020252397
        ]
      }
    },
    {
      "type": "Feature",
      "properties": {
        "norad_id": 65590,
        "name": "COSMOS 2596 (708K)",
        "group": "gnss",
        "lat": 62.821163800631375,
        "lon": 74.55782347671754,
        "alt_km": 19155.41134807343,
        "timestamp": "2025-12-15T04:01:20.697309+00:00",
        "meta_object_name": "COSMOS 2596 (708K)",
        "meta_object_id": "2025-206B",
        "meta_epoch": "2025-12-14T08:00:58.508064",
        "meta_mean_motion": 2.13100528,
        "meta_eccentricity": 0.00140478,
        "meta_inclination": 64.7433,
        "meta_ra_of_asc_node": 321.4185,
        "meta_arg_of_pericenter": 306.6085,
        "meta_mean_anomaly": 234.1442,
        "meta_ephemeris_type": 0,
        "meta_classification_type": "U",
        "meta_norad_cat_id": 65590,
        "meta_element_set_no": 999,
        "meta_rev_at_epoch": 197,
        "meta_bstar": 0,
        "meta_mean_motion_dot": -6.6e-07,
        "meta_mean_motion_ddot": 0,
        "tle_line1": "1 65590U 25206B   25348.33401051 -.00000066  00000+0  00000+0 0  9990",
        "tle_line2": "2 65590  64.7433 321.4185 0014047 306.6085 234.1442  2.13100528  1971"
      },
      "geometry": {
        "type": "Point",
        "coordinates": [
          74.55782347671754,
          62.821163800631375
        ]
      }
    }
  ]
}